IRIDIUM 126             
1 42809U 17039G   24291.88345905  .00000950  00000+0  33198-3 0  9993
2 42809  86.3952 247.3778 0002151  93.4977 266.6465 14.34219398382905
IRIDIUM 124             
1 42810U 17039H   24291.71423999  .00002023  00000+0  59522-3 0  9999
2 42810  86.4563 184.2726 0002741  76.6356 283.5150 14.43279660387493
IRIDIUM 128             
1 42811U 17039J   24291.38582101 -.00000252  00000+0 -96939-4 0  9992
2 42811  86.3905 279.1302 0002253  92.8147 267.3306 14.34214705382861
IRIDIUM 121             
1 42812U 17039K   24291.62342471  .00001347  00000+0  47376-3 0  9998
2 42812  86.3952 247.5100 0002176  85.7462 274.3983 14.34217881382748
IRIDIUM 100             
1 42956U 17061B   24291.89956598  .00000147  00000+0  45296-4 0  9999
2 42956  86.3904 278.9503 0002395  90.6022 269.5448 14.34217577367735
IRIDIUM 122             
1 42957U 17061C   24291.72832199  .00000340  00000+0  11430-3 0  9999
2 42957  86.3909 279.0205 0002302  95.4308 264.7150 14.34216826367711
